NORAD_CAT_ID,OBJECT_NAME,OBJECT_TYPE,EPOCH,MEAN_MOTION,ECCENTRICITY,INCLINATION,RA_OF_ASC_NODE,ARG_OF_PERICENTER,MEAN_ANOMALY,BSTAR,MEAN_MOTION_DOT,MEAN_MOTION_DDOT,TLE_LINE0,TLE_LINE1,TLE_LINE2,SEMIMAJOR_AXIS,PERIOD,APOGEE,PERIGEE,DECAYED
55761.0,STARLINK-5611,PAYLOAD,2024-06-18 20:16:33,14.9833896,0.000305,70.0,10.1844,269.56,90.521,9.2834e-05,1.015e-05,0.0,0 STARLINK-5611,1 55761U 23028W   24170.84483411  .00001015  00000-0  92834-4 0  9993,2 55761  70.0000  10.1844 0003050 269.5600  90.5210 14.98338960 72330,6950.165,96.106,574.15,569.91,0.0
55761.0,STARLINK-5611,PAYLOAD,2024-06-19 13:54:02,14.98327607,0.0002935,70.0003,8.3326,270.36,89.7223,6.3329e-05,6.63e-06,0.0,0 STARLINK-5611,1 55761U 23028W   24171.57920045  .00000663  00000-0  63329-4 0  9998,2 55761  70.0003   8.3326 0002935 270.3600  89.7223 14.98327607 72440,6950.2,96.107,574.105,570.025,0.0
55761.0,STARLINK-5611,PAYLOAD,2024-06-19 20:18:35,14.9832877,0.0002948,70.0002,7.6593,270.153,89.9291,3.9714e-05,3.81e-06,0.0,0 STARLINK-5611,1 55761U 23028W   24171.84624027  .00000381  00000-0  39714-4 0  9997,2 55761  70.0002   7.6593 0002948 270.1530  89.9291 14.98328770 72484,6950.197,96.107,574.111,570.013,0.0
55761.0,STARLINK-5611,PAYLOAD,2024-06-19 21:54:43,14.98329815,0.0002943,70.0003,7.491,270.2214,89.8608,5.014e-05,5.05e-06,0.0,0 STARLINK-5611,1 55761U 23028W   24171.91299931  .00000505  00000-0  50140-4 0  9991,2 55761  70.0003   7.4910 0002943 270.2214  89.8608 14.98329815 72494,6950.193,96.107,574.104,570.013,0.0
55761.0,STARLINK-5611,PAYLOAD,2024-06-20 13:56:03,14.98334241,0.0002867,70.0005,5.8078,270.5535,89.5295,5.1322e-06,-3.2e-07,0.0,0 STARLINK-5611,1 55761U 23028W   24172.58059751 -.00000032  00000-0  51322-5 0  9999,2 55761  70.0005   5.8078 0002867 270.5535  89.5295 14.98334241 72596,6950.18,96.107,574.037,570.052,0.0
55761.0,STARLINK-5611,PAYLOAD,2024-06-20 21:56:43,14.98333124,0.0002878,70.0005,4.9666,268.5135,91.5694,-1.0808e-05,-2.22e-06,0.0,0 STARLINK-5611,1 55761U 23028W   24172.91439748 -.00000222  00000-0 -10808-4 0  9999,2 55761  70.0005   4.9666 0002878 268.5135  91.5694 14.98333124 72645,6950.183,96.107,574.048,570.048,0.0
55761.0,STARLINK-5611,PAYLOAD,2024-06-21 13:58:04,14.98331883,0.0002953,70.0003,3.283,268.5037,91.5784,8.1678e-05,8.82e-06,0.0,0 STARLINK-5611,1 55761U 23028W   24173.58199573  .00000882  00000-0  81678-4 0  9995,2 55761  70.0003   3.2830 0002953 268.5037  91.5784 14.98331883 72744,6950.187,96.107,574.104,570.0,0.0
55761.0,STARLINK-5611,PAYLOAD,2024-06-21 21:58:44,14.98332212,0.0002968,70.0003,2.4413,268.5699,91.512,7.7673e-05,8.34e-06,0.0,0 STARLINK-5611,1 55761U 23028W   24173.91579536  .00000834  00000-0  77673-4 0  9990,2 55761  70.0003   2.4413 0002968 268.5699  91.5120 14.98332212 72798,6950.186,96.107,574.114,569.988,0.0
55761.0,STARLINK-5611,PAYLOAD,2024-06-22 14:00:05,14.98329163,0.0002958,70.0003,0.7579,267.9904,92.0916,4.52e-05,4.46e-06,0.0,0 STARLINK-5611,1 55761U 23028W   24174.58339819  .00000446  00000-0  45200-4 0  9992,2 55761  70.0003   0.7579 0002958 267.9904  92.0916 14.98329163 72894,6950.195,96.107,574.116,570.005,0.0
55761.0,STARLINK-5611,PAYLOAD,2024-06-22 22:00:45,14.98329405,0.0002981,70.0004,359.9162,268.1434,91.9384,3.5819e-05,3.34e-06,0.0,0 STARLINK-5611,1 55761U 23028W   24174.91719833  .00000334  00000-0  35819-4 0  9998,2 55761  70.0004 359.9162 0002981 268.1434  91.9384 14.98329405 72941,6950.195,96.107,574.132,569.988,0.0
55761.0,STARLINK-5611,PAYLOAD,2024-06-23 14:02:06,14.98331987,0.0002986,70.0004,358.2336,266.9075,93.1742,3.8688e-05,3.69e-06,0.0,0 STARLINK-5611,1 55761U 23028W   24175.58479632  .00000369  00000-0  38688-4 0  9997,2 55761  70.0004 358.2336 0002986 266.9075  93.1742 14.98331987 73040,6950.187,96.107,574.127,569.976,0.0
55761.0,STARLINK-5611,PAYLOAD,2024-06-23 22:02:46,14.98334383,0.0003053,70.0003,357.3914,270.4111,89.6699,5.7089e-05,5.88e-06,0.0,0 STARLINK-5611,1 55761U 23028W   24175.91859402  .00000588  00000-0  57089-4 0  9990,2 55761  70.0003 357.3914 0003053 270.4111  89.6699 14.98334383 73097,6950.179,96.107,574.166,569.922,0.0
55761.0,STARLINK-5611,PAYLOAD,2024-06-24 14:04:07,14.98331725,0.000305,70.0004,355.7077,271.4021,88.6788,8.0175e-05,8.64e-06,0.0,0 STARLINK-5611,1 55761U 23028W   24176.58619451  .00000864  00000-0  80175-4 0  9991,2 55761  70.0004 355.7077 0003050 271.4021  88.6788 14.98331725 73194,6950.188,96.107,574.172,569.933,0.0
55761.0,STARLINK-5611,PAYLOAD,2024-06-24 20:28:39,14.98333728,0.0003037,70.0005,355.0345,271.535,88.5461,9.9193e-05,1.091e-05,0.0,0 STARLINK-5611,1 55761U 23028W   24176.85323253  .00001091  00000-0  99193-4 0  9996,2 55761  70.0005 355.0345 0003037 271.5350  88.5461 14.98333728 73234,6950.181,96.107,574.157,569.936,0.0
55761.0,STARLINK-5611,PAYLOAD,2024-06-25 12:30:00,14.98333028,0.0002963,70.0007,353.3512,273.5121,86.57,5.1963e-05,5.27e-06,0.0,0 STARLINK-5611,1 55761U 23028W   24177.52083356  .00000527  00000-0  51963-4 0  9994,2 55761  70.0007 353.3512 0002963 273.5121  86.5700 14.98333028 73336,6950.184,96.107,574.108,569.989,0.0
55761.0,STARLINK-5611,PAYLOAD,2024-06-25 14:06:08,14.98332768,0.000298,70.0007,353.183,273.2235,86.8583,4.5551e-05,4.51e-06,0.0,0 STARLINK-5611,1 55761U 23028W   24177.58759372  .00000451  00000-0  45551-4 0  9990,2 55761  70.0007 353.1830 0002980 273.2235  86.8583 14.98332768 73342,6950.184,96.107,574.12,569.978,0.0
55761.0,STARLINK-5611,PAYLOAD,2024-06-25 22:06:48,14.98334829,0.0002962,70.0008,352.3417,273.1878,86.8942,6.2656e-05,6.55e-06,0.0,0 STARLINK-5611,1 55761U 23028W   24177.92139129  .00000655  00000-0  62656-4 0  9991,2 55761  70.0008 352.3417 0002962 273.1878  86.8942 14.98334829 73391,6950.178,96.107,574.102,569.984,0.0
55761.0,STARLINK-5611,PAYLOAD,2024-06-27 12:34:01,14.98331336,0.0002892,70.001,348.3028,266.3009,93.7819,3.2446e-05,2.94e-06,0.0,0 STARLINK-5611,1 55761U 23028W   24179.52363299  .00000294  00000-0  32446-4 0  9999,2 55761  70.0010 348.3028 0002892 266.3009  93.7819 14.98331336 73636,6950.189,96.107,574.064,570.044,0.0
55761.0,STARLINK-5611,PAYLOAD,2024-06-27 20:34:42,14.98332317,0.0002924,70.0009,347.4608,266.7886,93.2939,3.846e-05,3.66e-06,0.0,0 STARLINK-5611,1 55761U 23028W   24179.85743185  .00000366  00000-0  38460-4 0  9993,2 55761  70.0009 347.4608 0002924 266.7886  93.2939 14.98332317 73684,6950.186,96.107,574.083,570.018,0.0
55761.0,STARLINK-5611,PAYLOAD,2024-06-28 12:36:02,14.98328723,0.0003161,70.0,345.7768,269.7355,90.3441,0.00010045,1.106e-05,0.0,0 STARLINK-5611,1 55761U 23028W   24180.52503143  .00001106  00000-0  10045-3 0  9998,2 55761  70.0000 345.7768 0003161 269.7355  90.3441 14.98328723 73784,6950.197,96.107,574.259,569.865,0.0
55761.0,STARLINK-5611,PAYLOAD,2024-06-28 14:12:10,14.98329768,0.0003154,70.0002,345.6085,269.7887,90.2911,0.00010849,1.202e-05,0.0,0 STARLINK-5611,1 55761U 23028W   24180.59179077  .00001202  00000-0  10849-3 0  9999,2 55761  70.0002 345.6085 0003154 269.7887  90.2911 14.98329768 73791,6950.194,96.107,574.251,569.867,0.0
55761.0,STARLINK-5611,PAYLOAD,2024-06-28 20:36:42,14.98331027,0.0003067,70.0002,344.9364,268.6525,91.4283,0.00030671,3.569e-05,0.0,0 STARLINK-5611,1 55761U 23028W   24180.85882355  .00003569  00000-0  30671-3 0  9991,2 55761  70.0002 344.9364 0003067 268.6525  91.4283 14.98331027 73834,6950.19,96.107,574.186,569.923,0.0
55761.0,STARLINK-5611,PAYLOAD,2024-06-29 12:38:04,14.98325566,0.0002624,70.0002,343.2516,271.2146,88.8713,3.872e-05,3.69e-06,0.0,0 STARLINK-5611,1 55761U 23028W   24181.52643728  .00000369  00000-0  38720-4 0  9994,2 55761  70.0002 343.2516 0002624 271.2146  88.8713 14.98325566 73932,6950.207,96.107,573.895,570.248,0.0
55761.0,STARLINK-5611,PAYLOAD,2024-06-29 14:14:12,14.98324402,0.0002764,70.0005,343.0833,269.2413,90.8429,2.4822e-05,2.03e-06,0.0,0 STARLINK-5611,1 55761U 23028W   24181.59319807  .00000203  00000-0  24822-4 0  9994,2 55761  70.0005 343.0833 0002764 269.2413  90.8429 14.98324402 73940,6950.21,96.107,573.996,570.154,0.0
55761.0,STARLINK-5611,PAYLOAD,2024-06-29 20:38:44,14.98320284,0.0002871,70.0011,342.4098,270.4091,89.6739,1.0003e-05,2.6e-07,0.0,0 STARLINK-5611,1 55761U 23028W   24181.86024167  .00000026  00000-0  10003-4 0  9995,2 55761  70.0011 342.4098 0002871 270.4091  89.6739 14.98320284 73986,6950.223,96.108,574.083,570.093,0.0
55761.0,STARLINK-5611,PAYLOAD,2024-06-30 14:16:12,14.98331932,0.0003127,70.0,340.5583,270.7744,89.3056,7.9054e-05,8.5e-06,0.0,0 STARLINK-5611,1 55761U 23028W   24182.59459265  .00000850  00000-0  79054-4 0  9993,2 55761  70.0000 340.5583 0003127 270.7744  89.3056 14.98331932 74099,6950.187,96.107,574.225,569.879,0.0
55761.0,STARLINK-5611,PAYLOAD,2024-06-30 20:40:44,14.98340861,0.0002846,70.0007,339.8847,271.0658,89.0175,0.00011698,1.303e-05,0.0,0 STARLINK-5611,1 55761U 23028W   24182.86162579  .00001303  00000-0  11698-3 0  9995,2 55761  70.0007 339.8847 0002846 271.0658  89.0175 14.98340861 74130,6950.159,96.106,574.002,570.046,0.0
55761.0,STARLINK-5611,PAYLOAD,2024-07-01 12:42:05,14.98326793,0.0002827,70.0007,338.2014,271.4562,88.6274,0.00019048,2.18e-05,0.0,0 STARLINK-5611,1 55761U 23028W   24183.52923282  .00002180  00000-0  19048-3 0  9996,2 55761  70.0007 338.2014 0002827 271.4562  88.6274 14.98326793 74230,6950.203,96.107,574.033,570.103,0.0
55761.0,STARLINK-5611,PAYLOAD,2024-07-01 14:18:13,14.98326971,0.0002788,70.0009,338.0332,271.65,88.434,0.00019109,2.188e-05,0.0,0 STARLINK-5611,1 55761U 23028W   24183.59599277  .00002188  00000-0  19109-3 0  9992,2 55761  70.0009 338.0332 0002788 271.6500  88.4340 14.98326971 74244,6950.202,96.107,574.005,570.13,0.0
55761.0,STARLINK-5611,PAYLOAD,2024-07-01 20:42:45,14.98331501,0.0002798,70.0011,337.3606,271.0468,89.0371,0.00021809,2.51e-05,0.0,0 STARLINK-5611,1 55761U 23028W   24183.86302904  .00002510  00000-0  21809-3 0  9990,2 55761  70.0011 337.3606 0002798 271.0468  89.0371 14.98331501 74281,6950.188,96.107,573.998,570.109,0.0
